NORAD_CAT_ID,OBJECT_NAME,OBJECT_TYPE,EPOCH,MEAN_MOTION,ECCENTRICITY,INCLINATION,RA_OF_ASC_NODE,ARG_OF_PERICENTER,MEAN_ANOMALY,BSTAR,MEAN_MOTION_DOT,MEAN_MOTION_DDOT,TLE_LINE0,TLE_LINE1,TLE_LINE2,SEMIMAJOR_AXIS,PERIOD,APOGEE,PERIGEE,DECAYED
52131.0,STARLINK-3711,PAYLOAD,2024-06-19 20:26:29,15.08835426,0.0001435,53.2182,7.5989,87.3787,272.7369,-1.2913e-06,-3.08e-06,0.0,0 STARLINK-3711,1 52131U 22029AV  24171.85173134 -.00000308  00000-0 -12913-5 0  9998,2 52131  53.2182   7.5989 0001435  87.3787 272.7369 15.08835426126159,6917.894,95.438,540.752,538.767,0.0
52131.0,STARLINK-3711,PAYLOAD,2024-06-20 05:58:48,15.08841023,0.0001472,53.2182,5.8131,85.5144,274.6017,6.1272e-05,6.87e-06,0.0,0 STARLINK-3711,1 52131U 22029AV  24172.24916831  .00000687  00000-0  61272-4 0  9990,2 52131  53.2182   5.8131 0001472  85.5144 274.6017 15.08841023126215,6917.877,95.437,540.761,538.724,0.0
52131.0,STARLINK-3711,PAYLOAD,2024-06-20 21:52:40,15.08833664,0.0001556,53.2192,2.8393,87.6075,272.5096,5.7273e-05,6.23e-06,0.0,0 STARLINK-3711,1 52131U 22029AV  24172.91157616  .00000623  00000-0  57273-4 0  9998,2 52131  53.2192   2.8393 0001556  87.6075 272.5096 15.08833664126319,6917.9,95.438,540.841,538.688,0.0
52131.0,STARLINK-3711,PAYLOAD,2024-06-21 21:43:27,15.08843251,0.0001465,53.2188,358.3787,81.9296,278.1862,0.00025617,3.792e-05,0.0,0 STARLINK-3711,1 52131U 22029AV  24173.90517415  .00003792  00000-0  25617-3 0  9991,2 52131  53.2188 358.3787 0001465  81.9296 278.1862 15.08843251126463,6917.87,95.437,540.749,538.722,0.0
52131.0,STARLINK-3711,PAYLOAD,2024-06-22 12:01:55,15.0884695,0.0001431,53.218,355.7017,83.4585,276.657,-2.6372e-05,-7.08e-06,0.0,0 STARLINK-3711,1 52131U 22029AV  24174.50133129 -.00000708  00000-0 -26372-4 0  9990,2 52131  53.2180 355.7017 0001431  83.4585 276.6570 15.08846950126551,6917.859,95.437,540.714,538.734,0.0
52131.0,STARLINK-3711,PAYLOAD,2024-06-22 18:23:27,15.08842633,0.0001255,53.2178,354.5122,91.818,268.2955,0.00015516,2.183e-05,0.0,0 STARLINK-3711,1 52131U 22029AV  24174.76629467  .00002183  00000-0  15516-3 0  9997,2 52131  53.2178 354.5122 0001255  91.8180 268.2955 15.08842633126592,6917.872,95.437,540.606,538.869,0.0
52131.0,STARLINK-3711,PAYLOAD,2024-06-23 18:14:14,15.08844762,0.000123,53.2177,350.052,97.3995,262.7137,7.8955e-05,9.69e-06,0.0,0 STARLINK-3711,1 52131U 22029AV  24175.75989246  .00000969  00000-0  78955-4 0  9998,2 52131  53.2177 350.0520 0001230  97.3995 262.7137 15.08844762126745,6917.866,95.437,540.582,538.88,0.0
52131.0,STARLINK-3711,PAYLOAD,2024-06-24 11:43:29,15.0884161,0.0001303,53.2182,346.7826,85.26,274.8541,0.00010777,1.428e-05,0.0,0 STARLINK-3711,1 52131U 22029AV  24176.48853432  .00001428  00000-0  10777-3 0  9994,2 52131  53.2182 346.7826 0001303  85.2600 274.8541 15.08841610126856,6917.875,95.437,540.642,538.839,0.0
52131.0,STARLINK-3711,PAYLOAD,2024-06-24 14:54:15,15.08836448,0.0001249,53.2184,346.1846,100.7027,259.4106,-1.3352e-05,-5e-06,0.0,0 STARLINK-3711,1 52131U 22029AV  24176.62101598 -.00000500  00000-0 -13352-4 0  9994,2 52131  53.2184 346.1846 0001249 100.7027 259.4106 15.08836448126870,6917.891,95.438,540.62,538.892,0.0
52131.0,STARLINK-3711,PAYLOAD,2024-06-24 16:29:39,15.08836802,0.0001199,53.2187,345.8874,95.6946,264.4183,7.0344e-06,-1.76e-06,0.0,0 STARLINK-3711,1 52131U 22029AV  24176.68725772 -.00000176  00000-0  70344-5 0  9999,2 52131  53.2187 345.8874 0001199  95.6946 264.4183 15.08836802126882,6917.89,95.438,540.585,538.926,0.0
52131.0,STARLINK-3711,PAYLOAD,2024-06-25 14:45:03,15.08834906,0.000108,53.2173,341.7169,87.6799,272.4317,4.4862e-05,4.26e-06,0.0,0 STARLINK-3711,1 52131U 22029AV  24177.61461922  .00000426  00000-0  44862-4 0  9999,2 52131  53.2173 341.7169 0001080  87.6799 272.4317 15.08834906127023,6917.896,95.438,540.508,539.014,0.0
52131.0,STARLINK-3711,PAYLOAD,2024-06-25 19:31:12,15.08837069,0.0001245,53.2187,340.8286,98.127,261.9863,4.5631e-05,4.38e-06,0.0,0 STARLINK-3711,1 52131U 22029AV  24177.81333826  .00000438  00000-0  45631-4 0  9990,2 52131  53.2187 340.8286 0001245  98.1270 261.9863 15.08837069127057,6917.889,95.438,540.616,538.893,0.0
52131.0,STARLINK-3711,PAYLOAD,2024-06-26 03:28:07,15.08842223,0.0001197,53.2188,339.3445,80.3252,279.7875,7.0457e-05,8.34e-06,0.0,0 STARLINK-3711,1 52131U 22029AV  24178.14453551  .00000834  00000-0  70457-4 0  9999,2 52131  53.2188 339.3445 0001197  80.3252 279.7875 15.08842223127101,6917.874,95.437,540.567,538.911,0.0
52131.0,STARLINK-3711,PAYLOAD,2024-06-27 17:37:23,15.08838346,0.0001054,53.2174,332.2106,92.3359,267.7754,3.5609e-05,2.79e-06,0.0,0 STARLINK-3711,1 52131U 22029AV  24179.73430336  .00000279  00000-0  35609-4 0  9994,2 52131  53.2174 332.2106 0001054  92.3359 267.7754 15.08838346127345,6917.885,95.438,540.48,539.021,0.0
52131.0,STARLINK-3711,PAYLOAD,2024-06-28 14:17:25,15.08811829,0.0001141,53.2188,328.3422,90.3092,269.803,0.00050329,7.725e-05,0.0,0 STARLINK-3711,1 52131U 22029AV  24180.59543290  .00007725  00000-0  50329-3 0  9992,2 52131  53.2188 328.3422 0001141  90.3092 269.8030 15.08811829127477,6917.966,95.439,540.621,539.042,0.0
52131.0,STARLINK-3711,PAYLOAD,2024-06-28 17:28:09,15.08857936,0.0001131,53.2177,327.7476,99.6849,260.4271,0.00022873,3.356e-05,0.0,0 STARLINK-3711,1 52131U 22029AV  24180.72788679  .00003356  00000-0  22873-3 0  9998,2 52131  53.2177 327.7476 0001131  99.6849 260.4271 15.08857936127493,6917.826,95.436,540.473,538.908,0.0
52131.0,STARLINK-3711,PAYLOAD,2024-06-29 09:22:03,15.08820225,0.0001404,53.2169,324.7758,80.8686,279.2464,-0.00012192,-2.227e-05,0.0,0 STARLINK-3711,1 52131U 22029AV  24181.39031653 -.00002227  00000-0 -12192-3 0  9996,2 52131  53.2169 324.7758 0001404  80.8686 279.2464 15.08820225127592,6917.941,95.439,540.777,538.835,0.0
52131.0,STARLINK-3711,PAYLOAD,2024-06-29 14:08:12,15.08821008,0.0001401,53.2171,323.8848,78.1986,281.9163,-0.0001118,-2.066e-05,0.0,0 STARLINK-3711,1 52131U 22029AV  24181.58903787 -.00002066  00000-0 -11180-3 0  9990,2 52131  53.2171 323.8848 0001401  78.1986 281.9163 15.08821008127625,6917.938,95.439,540.773,538.834,0.0
52131.0,STARLINK-3711,PAYLOAD,2024-06-29 18:54:21,15.08826082,0.0001028,53.2145,322.9908,106.269,253.8415,-8.2257e-05,-1.596e-05,0.0,0 STARLINK-3711,1 52131U 22029AV  24181.78775363 -.00001596  00000-0 -82257-4 0  9990,2 52131  53.2145 322.9908 0001028 106.2690 253.8415 15.08826082127651,6917.923,95.438,540.499,539.077,0.0
52131.0,STARLINK-3711,PAYLOAD,2024-06-30 02:51:17,15.08835984,0.0001461,53.219,321.5042,88.1597,271.9563,5.6702e-06,-1.98e-06,0.0,0 STARLINK-3711,1 52131U 22029AV  24182.11894874 -.00000198  00000-0  56702-5 0  9990,2 52131  53.2190 321.5042 0001461  88.1597 271.9563 15.08835984127702,6917.893,95.438,540.768,538.747,0.0
52131.0,STARLINK-3711,PAYLOAD,2024-06-30 13:58:58,15.08841641,0.0001401,53.217,319.4234,82.0478,278.0674,0.00014267,1.983e-05,0.0,0 STARLINK-3711,1 52131U 22029AV  24182.58262373  .00001983  00000-0  14267-3 0  9994,2 52131  53.2170 319.4234 0001401  82.0478 278.0674 15.08841641127779,6917.875,95.437,540.71,538.771,0.0
52131.0,STARLINK-3711,PAYLOAD,2024-06-30 15:34:21,15.08849012,0.0001235,53.2166,319.1261,89.5645,270.5488,5.4462e-05,5.79e-06,0.0,0 STARLINK-3711,1 52131U 22029AV  24182.64886063  .00000579  00000-0  54462-4 0  9991,2 52131  53.2166 319.1261 0001235  89.5645 270.5488 15.08849012127785,6917.853,95.437,540.572,538.863,0.0
52131.0,STARLINK-3711,PAYLOAD,2024-07-01 12:14:22,15.08840408,0.0001367,53.2156,315.2608,81.7647,278.35,0.00027147,4.035e-05,0.0,0 STARLINK-3711,1 52131U 22029AV  24183.50998645  .00004035  00000-0  27147-3 0  9997,2 52131  53.2156 315.2608 0001367  81.7647 278.3500 15.08840408127914,6917.879,95.438,540.69,538.798,0.0
52131.0,STARLINK-3711,PAYLOAD,2024-07-01 15:25:08,15.08848508,0.0001192,53.2159,314.666,77.7185,282.3941,0.00039135,5.947e-05,0.0,0 STARLINK-3711,1 52131U 22029AV  24183.64246238  .00005947  00000-0  39135-3 0  9999,2 52131  53.2159 314.6660 0001192  77.7185 282.3941 15.08848508127931,6917.854,95.437,540.544,538.895,0.0
52131.0,STARLINK-3711,PAYLOAD,2024-07-02 12:05:09,15.08836214,0.000117,53.2149,310.796,76.2443,283.8679,0.0001144,1.533e-05,0.0,0 STARLINK-3711,1 52131U 22029AV  24184.50358605  .00001533  00000-0  11440-3 0  9993,2 52131  53.2149 310.7960 0001170  76.2443 283.8679 15.08836214128067,6917.892,95.438,540.566,538.948,0.0
52131.0,STARLINK-3711,PAYLOAD,2024-07-02 13:40:33,15.08838569,0.0001366,53.2163,310.5011,76.1065,284.0079,-4.2395e-05,-9.63e-06,0.0,0 STARLINK-3711,1 52131U 22029AV  24184.56982781 -.00000963  00000-0 -42395-4 0  9999,2 52131  53.2163 310.5011 0001366  76.1065 284.0079 15.08838569128077,6917.885,95.438,540.695,538.805,0.0
52131.0,STARLINK-3711,PAYLOAD,2024-07-02 18:26:42,15.08836298,0.0001171,53.2168,309.6084,75.3049,284.8073,-5.5165e-05,-1.166e-05,0.0,0 STARLINK-3711,1 52131U 22029AV  24184.76854769 -.00001166  00000-0 -55165-4 0  9990,2 52131  53.2168 309.6084 0001171  75.3049 284.8073 15.08836298128101,6917.892,95.438,540.567,538.947,0.0
52131.0,STARLINK-3711,PAYLOAD,2024-07-03 11:55:54,15.08887732,0.0001793,53.2167,306.3379,69.9516,290.1669,-0.0015994,-0.00025686,0.0,0 STARLINK-3711,1 52131U 22029AV  24185.49715764 -.00025686  00000-0 -15994-2 0  9999,2 52131  53.2167 306.3379 0001793  69.9516 290.1669 15.08887732128211,6917.734,95.435,540.84,538.359,0.0
52131.0,STARLINK-3711,PAYLOAD,2024-07-03 15:06:43,15.08834277,0.0001161,53.2164,305.7436,77.8569,282.2553,0.000159,2.243e-05,0.0,0 STARLINK-3711,1 52131U 22029AV  24185.62967161  .00002243  00000-0  15900-3 0  9994,2 52131  53.2164 305.7436 0001161  77.8569 282.2553 15.08834277128232,6917.898,95.438,540.566,538.96,0.0
52131.0,STARLINK-3711,PAYLOAD,2024-07-04 00:39:01,15.08850231,0.000115,53.2169,303.9589,72.5989,287.5129,0.00022465,3.29e-05,0.0,0 STARLINK-3711,1 52131U 22029AV  24186.02710198  .00003290  00000-0  22465-3 0  9992,2 52131  53.2169 303.9589 0001150  72.5989 287.5129 15.08850231128293,6917.849,95.437,540.51,538.919,0.0
